ONEWEB-0685             
1 54679U 22166AP  24180.50651030 -.00000558  00000+0 -13821-2 0  9999
2 54679  87.9282  27.0526 0002035  93.9016 266.2350 13.21827142 76940
ONEWEB-0712             
1 54680U 22166AQ  24180.53966441  .00005445  00000+0  14207-1 0  9995
2 54680  87.9100  11.8523 0002143  78.9005 281.2366 13.16571754 77955
ONEWEB-0714             
1 54681U 22166AR  24179.83156310  .00000094  00000+0  19593-3 0  9993
2 54681  87.9282  27.1733 0002074  94.2334 265.9037 13.21825743 76509
ONEWEB-0532             
1 55140U 23004A   24179.91745496 -.00000185  00000+0 -51091-3 0  9996
2 55140  87.9171 149.0548 0001580  91.7715 268.3597 13.17649704 72860
ONEWEB-0533             
1 55141U 23004B   24180.38846604  .00000366  00000+0  98289-3 0  9992
2 55141  87.8953 133.7691 0002179  84.7235 275.4142 13.12447276 73772
ONEWEB-0541             
1 55142U 23004C   24179.93265604  .00000215  00000+0  57025-3 0  9993
2 55142  87.8964 164.1882 0002002  86.8860 273.2497 13.11418857 71675
ONEWEB-0543             
1 55143U 23004D   24179.85502581  .00000100  00000+0  22055-3 0  9991
2 55143  87.9144 118.7484 0002421  77.7412 282.3991 13.18685487 74896
ONEWEB-0544             
1 55144U 23004E   24179.84869069 -.00001462  00000+0 -37406-2 0  9997
2 55144  87.9148 118.7345 0002471  80.8893 279.2519 13.18693370 74891
